GLOBALSTAR M001         
1 25162U 98008A   24287.85062617 -.00000023  00000+0  56723-3 0  9990
2 25162  52.0049 330.2018 0001817  96.1933  75.0405 12.38196155213191
GLOBALSTAR M004         
1 25163U 98008B   24287.89280799 -.00000038  00000+0  36521-3 0  9998
2 25163  51.9991  85.5237 0003960 102.3520  52.8813 12.63375608230557
GLOBALSTAR M002         
1 25164U 98008C   24288.04074056 -.00000052  00000+0  48140-3 0  9990
2 25164  51.9989 137.3737 0002359  66.8049 293.3019 11.61505159155534
GLOBALSTAR M003         
1 25165U 98008D   24287.86594692  .00000050  00000+0  14901-2 0  9997
2 25165  51.9925 130.7189 0008388 152.7749 220.1949 12.12044220203351
GLOBALSTAR M014         
1 25306U 98023A   24287.81996708 -.00000057  00000+0  37653-3 0  9998
2 25306  51.9844  66.3282 0000288 194.7490 272.3550 11.65472762162440
GLOBALSTAR M006         
1 25307U 98023B   24287.92529620 -.00000042  00000+0  68283-3 0  9993
2 25307  51.9910 109.3329 0004158  35.0782 133.8105 11.58168441188292
GLOBALSTAR M015         
1 25308U 98023C   24287.82763705 -.00000026  00000+0  10892-2 0  9991
2 25308  51.9808 196.7588 0013016   1.4547  75.8161 11.48853363165762
GLOBALSTAR M008         
1 25309U 98023D   24287.92699671 -.00000045  00000+0  40007-3 0  9996
2 25309  51.9961 192.0179 0003168  28.2094  52.1116 12.36051884207399
